{
  "type": "FeatureCollection",
  "features": [
    {
      "type": "Feature",
      "properties": {
        "norad_id": 30404,
        "name": "FENGYUN 1C DEB",
        "group": "fengyun-1c-debris",
        "lat": -33.32907513637146,
        "lon": 75.43582183514879,
        "alt_km": 1409.3672419860313,
        "timestamp": "2025-12-02T17:49:12.304232+00:00",
        "meta_object_name": "FENGYUN 1C DEB",
        "meta_object_id": "1999-025ADT",
        "meta_epoch": "2025-11-30T17:24:43.426368",
        "meta_mean_motion": 13.34313011,
        "meta_eccentricity": 0.03760074,
        "meta_inclination": 99.8332,
        "meta_ra_of_asc_node": 66.9455,
        "meta_arg_of_pericenter": 165.4409,
        "meta_mean_anomaly": 195.791,
        "meta_ephemeris_type": 0,
        "meta_classification_type": "U",
        "meta_norad_cat_id": 30404,
        "meta_element_set_no": 999,
        "meta_rev_at_epoch": 57876,
        "meta_bstar": 0.0014039979,
        "meta_mean_motion_dot": 1.003e-05,
        "meta_mean_motion_ddot": 0,
        "tle_line1": "1 30404U 99025ADT 25334.72550262  .00001003  00000+0  14040-2 0  9996",
        "tle_line2": "2 30404  99.8332  66.9455 0376007 165.4409 195.7910 13.34313011578769"
      },
      "geometry": {
        "type": "Point",
        "coordinates": [
          75.43582183514879,
          -33.32907513637146
        ]
      }
    },
    {
      "type": "Feature",
      "properties": {
        "norad_id": 30405,
        "name": "FENGYUN 1C DEB",
        "group": "fengyun-1c-debris",
        "lat": -75.58698871929423,
        "lon": 107.68646497529873,
        "alt_km": 809.0476316162813,
        "timestamp": "2025-12-02T17:49:12.304242+00:00",
        "meta_object_name": "FENGYUN 1C DEB",
        "meta_object_id": "1999-025ADU",
        "meta_epoch": "2025-12-02T01:57:34.279200",
        "meta_mean_motion": 14.28757262,
        "meta_eccentricity": 0.00516482,
        "meta_inclination": 98.7948,
        "meta_ra_of_asc_node": 69.9787,
        "meta_arg_of_pericenter": 183.9789,
        "meta_mean_anomaly": 299.706,
        "meta_ephemeris_type": 0,
        "meta_classification_type": "U",
        "meta_norad_cat_id": 30405,
        "meta_element_set_no": 999,
        "meta_rev_at_epoch": 97243,
        "meta_bstar": 0.0021573373,
        "meta_mean_motion_dot": 5.468e-05,
        "meta_mean_motion_ddot": 0,
        "tle_line1": "1 30405U 99025ADU 25336.08164675  .00005468  00000+0  21573-2 0  9995",
        "tle_line2": "2 30405  98.7948  69.9787 0051648 183.9789 299.7060 14.28757262972436"
      },
      "geometry": {
        "type": "Point",
        "coordinates": [
          107.68646497529873,
          -75.58698871929423
        ]
      }
    },
    {
      "type": "Feature",
      "properties": {
        "norad_id": 30406,
        "name": "FENGYUN 1C DEB",
        "group": "fengyun-1c-debris",
        "lat": -45.376022898538736,
        "lon": 39.752279800611724,
        "alt_km": 1241.5198268795193,
        "timestamp": "2025-12-02T17:49:12.304252+00:00",
        "meta_object_name": "FENGYUN 1C DEB",
        "meta_object_id": "1999-025ADV",
        "meta_epoch": "2025-12-02T10:29:05.771040",
        "meta_mean_motion": 13.59146513,
        "meta_eccentricity": 0.028281,
        "meta_inclination": 98.6203,
        "meta_ra_of_asc_node": 228.3241,
        "meta_arg_of_pericenter": 26.4858,
        "meta_mean_anomaly": 145.9862,
        "meta_ephemeris_type": 0,
        "meta_classification_type": "U",
        "meta_norad_cat_id": 30406,
        "meta_element_set_no": 999,
        "meta_rev_at_epoch": 93026,
        "meta_bstar": 0.0029792,
        "meta_mean_motion_dot": 2.815e-05,
        "meta_mean_motion_ddot": 0,
        "tle_line1": "1 30406U 99025ADV 25336.43687235  .00002815  00000+0  29792-2 0  9991",
        "tle_line2": "2 30406  98.6203 228.3241 0282810  26.4858 145.9862 13.59146513930262"
      },
      "geometry": {
        "type": "Point",
        "coordinates": [
          39.752279800611724,
          -45.376022898538736
        ]
      }
    },
    {
      "type": "Feature",
      "properties": {
        "norad_id": 30409,
        "name": "FENGYUN 1C DEB",
        "group": "fengyun-1c-debris",
        "lat": 9.884533801046809,
        "lon": 146.28949188713946,
        "alt_km": 969.8304662122719,
        "timestamp": "2025-12-02T17:49:12.304263+00:00",
        "meta_object_name": "FENGYUN 1C DEB",
        "meta_object_id": "1999-025ADY",
        "meta_epoch": "2025-12-02T10:53:56.760288",
        "meta_mean_motion": 14.03681257,
        "meta_eccentricity": 0.0168498,
        "meta_inclination": 98.472,
        "meta_ra_of_asc_node": 324.5324,
        "meta_arg_of_pericenter": 34.5529,
        "meta_mean_anomaly": 117.5759,
        "meta_ephemeris_type": 0,
        "meta_classification_type": "U",
        "meta_norad_cat_id": 30409,
        "meta_element_set_no": 999,
        "meta_rev_at_epoch": 96285,
        "meta_bstar": 0.00097202,
        "meta_mean_motion_dot": 1.694e-05,
        "meta_mean_motion_ddot": 0,
        "tle_line1": "1 30409U 99025ADY 25336.45412917  .00001694  00000+0  97202-3 0  9995",
        "tle_line2": "2 30409  98.4720 324.5324 0168498  34.5529 117.5759 14.03681257962857"
      },
      "geometry": {
        "type": "Point",
        "coordinates": [
          146.28949188713946,
          9.884533801046809
        ]
      }
    },
    {
      "type": "Feature",
      "properties": {
        "norad_id": 30411,
        "name": "FENGYUN 1C DEB",
        "group": "fengyun-1c-debris",
        "lat": -73.04421364260224,
        "lon": 38.16744236582074,
        "alt_km": 918.4888853522234,
        "timestamp": "2025-12-02T17:49:12.304273+00:00",
        "meta_object_name": "FENGYUN 1C DEB",
        "meta_object_id": "1999-025AEA",
        "meta_epoch": "2025-12-02T11:30:11.209824",
        "meta_mean_motion": 14.07559652,
        "meta_eccentricity": 0.0121797,
        "meta_inclination": 98.5803,
        "meta_ra_of_asc_node": 247.6001,
        "meta_arg_of_pericenter": 135.9224,
        "meta_mean_anomaly": 225.1733,
        "meta_ephemeris_type": 0,
        "meta_classification_type": "U",
        "meta_norad_cat_id": 30411,
        "meta_element_set_no": 999,
        "meta_rev_at_epoch": 95839,
        "meta_bstar": 0.0021318,
        "meta_mean_motion_dot": 3.809e-05,
        "meta_mean_motion_ddot": 0,
        "tle_line1": "1 30411U 99025AEA 25336.47929641  .00003809  00000+0  21318-2 0  9991",
        "tle_line2": "2 30411  98.5803 247.6001 0121797 135.9224 225.1733 14.07559652958398"
      },
      "geometry": {
        "type": "Point",
        "coordinates": [
          38.16744236582074,
          -73.04421364260224
        ]
      }
    },
    {
      "type": "Feature",
      "properties": {
        "norad_id": 30413,
        "name": "FENGYUN 1C DEB",
        "group": "fengyun-1c-debris",
        "lat": 66.17467482652272,
        "lon": 54.73024564407321,
        "alt_km": 799.7662228962863,
        "timestamp": "2025-12-02T17:49:12.304283+00:00",
        "meta_object_name": "FENGYUN 1C DEB",
        "meta_object_id": "1999-025AEC",
        "meta_epoch": "2025-12-02T02:55:36.325344",
        "meta_mean_motion": 14.32331053,
        "meta_eccentricity": 0.00465424,
        "meta_inclination": 102.0625,
        "meta_ra_of_asc_node": 204.907,
        "meta_arg_of_pericenter": 244.8113,
        "meta_mean_anomaly": 268.0168,
        "meta_ephemeris_type": 0,
        "meta_classification_type": "U",
        "meta_norad_cat_id": 30413,
        "meta_element_set_no": 999,
        "meta_rev_at_epoch": 96987,
        "meta_bstar": 0.0026641064,
        "meta_mean_motion_dot": 7.218e-05,
        "meta_mean_motion_ddot": 0,
        "tle_line1": "1 30413U 99025AEC 25336.12194821  .00007218  00000+0  26641-2 0  9991",
        "tle_line2": "2 30413 102.0625 204.9070 0046542 244.8113 268.0168 14.32331053969870"
      },
      "geometry": {
        "type": "Point",
        "coordinates": [
          54.73024564407321,
          66.17467482652272
        ]
      }
    },
    {
      "type": "Feature",
      "properties": {
        "norad_id": 30414,
        "name": "FENGYUN 1C DEB",
        "group": "fengyun-1c-debris",
        "lat": 35.24224518185004,
        "lon": -40.018808049402864,
        "alt_km": 763.8563595070918,
        "timestamp": "2025-12-02T17:49:12.304294+00:00",
        "meta_object_name": "FENGYUN 1C DEB",
        "meta_object_id": "1999-025AED",
        "meta_epoch": "2025-12-02T08:46:17.835744",
        "meta_mean_motion": 14.33902878,
        "meta_eccentricity": 0.0058909,
        "meta_inclination": 99.0805,
        "meta_ra_of_asc_node": 133.0977,
        "meta_arg_of_pericenter": 218.4453,
        "meta_mean_anomaly": 141.2526,
        "meta_ephemeris_type": 0,
        "meta_classification_type": "U",
        "meta_norad_cat_id": 30414,
        "meta_element_set_no": 999,
        "meta_rev_at_epoch": 96938,
        "meta_bstar": 0.003272,
        "meta_mean_motion_dot": 9.26e-05,
        "meta_mean_motion_ddot": 0,
        "tle_line1": "1 30414U 99025AED 25336.36548421  .00009260  00000+0  32720-2 0  9991",
        "tle_line2": "2 30414  99.0805 133.0977 0058909 218.4453 141.2526 14.33902878969384"
      },
      "geometry": {
        "type": "Point",
        "coordinates": [
          -40.018808049402864,
          35.24224518185004
        ]
      }
    }
  ]
}